{
    "links": {
        "self": "http://www.neowsapp.com/rest/v1/neo/3647995?api_key=iIulBulltgU6a56xZRHN4H3l9WmuAYTsLGpBGhQ2"
    },
    "id": "3647995",
    "neo_reference_id": "3647995",
    "name": "(2013 RL43)",
    "designation": "2013 RL43",
    "nasa_jpl_url": "http://ssd.jpl.nasa.gov/sbdb.cgi?sstr=3647995",
    "absolute_magnitude_h": 23.3,
    "estimated_diameter": {
        "kilometers": {
            "estimated_diameter_min": 0.058150704,
            "estimated_diameter_max": 0.130028927
        },
        "meters": {
            "estimated_diameter_min": 58.1507039646,
            "estimated_diameter_max": 130.0289270043
        },
        "miles": {
            "estimated_diameter_min": 0.0361331611,
            "estimated_diameter_max": 0.0807962044
        },
        "feet": {
            "estimated_diameter_min": 190.7831555951,
            "estimated_diameter_max": 426.6041048727
        }
    },
    "is_potentially_hazardous_asteroid": false,
    "close_approach_data": [
        {
            "close_approach_date": "1931-09-13",
            "close_approach_date_full": "1931-Sep-13 21:26",
            "epoch_date_close_approach": -1208658840000,
            "relative_velocity": {
                "kilometers_per_second": "31.0511035394",
                "kilometers_per_hour": "111783.9727419311",
                "miles_per_hour": "69458.2135073405"
            },
            "miss_distance": {
                "astronomical": "0.1413688456",
                "lunar": "54.9924809384",
                "kilometers": "21148478.186118872",
                "miles": "13141054.9860375536"
            },
            "orbiting_body": "Earth"
        },
        {
            "close_approach_date": "2013-09-21",
            "close_approach_date_full": "2013-Sep-21 21:57",
            "epoch_date_close_approach": 1379800620000,
            "relative_velocity": {
                "kilometers_per_second": "26.0057799471",
                "kilometers_per_hour": "93620.8078094747",
                "miles_per_hour": "58172.329163615"
            },
            "miss_distance": {
                "astronomical": "0.0334223542",
                "lunar": "13.0012957838",
                "kilometers": "4999912.998705554",
                "miles": "3106801.8730784852"
            },
            "orbiting_body": "Earth"
        }
    ],
    "orbital_data": {
        "orbit_id": "7",
        "orbit_determination_date": "2017-04-06 08:44:44",
        "first_observation_date": "2013-09-10",
        "last_observation_date": "2013-09-19",
        "data_arc_in_days": 9,
        "observations_used": 25,
        "orbit_uncertainty": "9",
        "minimum_orbit_intersection": ".011848",
        "jupiter_tisserand_invariant": "3.694",
        "epoch_osculation": "2456546.5",
        "eccentricity": ".8003059917586246",
        "semi_major_axis": "1.731841121042756",
        "inclination": "4.210387570185379",
        "ascending_node_longitude": "186.6912608387756",
        "orbital_period": "832.4544858349008",
        "perihelion_distance": ".3458382950982649",
        "perihelion_argument": "289.0782749106143",
        "aphelion_distance": "3.117843946987247",
        "perihelion_time": "2456602.444357269358",
        "mean_anomaly": "335.8065228073464",
        "mean_motion": ".4324560755281919",
        "equinox": "J2000",
        "orbit_class": {
            "orbit_class_type": "APO",
            "orbit_class_description": "Near-Earth asteroid orbits which cross the Earth’s orbit similar to that of 1862 Apollo",
            "orbit_class_range": "a (semi-major axis) > 1.0 AU; q (perihelion) < 1.017 AU"
        }
    },
    "is_sentry_object": false
}